start=new Date('2022-03-15T00:00:00.000Z').valueOf();
sats=[{"OBJECT_NAME":"STARLINK-2413","GP_ID":"198767566","TLE_LINE2":"2 47827  53.0523 297.1624 0001438  81.4458 278.6694 15.06394905 57360","OBJECT_TYPE":"PAYLOAD","MEAN_ELEMENT_THEORY":"SGP4","PERIAPSIS":"546.233","ELEMENT_SET_NO":"999","EPHEMERIS_TYPE":"0","MEAN_ANOMALY":"278.6694","CENTER_NAME":"EARTH","FILE":"3359665","BSTAR":"-0.00000128960000","NORAD_CAT_ID":"47827","APOAPSIS":"548.225","REF_FRAME":"TEME","COUNTRY_CODE":"US","ECCENTRICITY":"0.00014380","TIME_SYSTEM":"UTC","RA_OF_ASC_NODE":"297.1624","MEAN_MOTION_DDOT":"0.0000000000000","SITE":"AFETR","OBJECT_ID":"2021-018AS","PERIOD":"95.592","EPOCH":"2022-03-14T20:19:32.138400","REV_AT_EPOCH":"5736","INCLINATION":"53.0523","LAUNCH_DATE":"2021-03-11","CLASSIFICATION_TYPE":"U","ARG_OF_PERICENTER":"81.4458","DECAY_DATE":null,"TLE_LINE1":"1 47827U 21018AS  22073.84689975 -.00000301  00000-0 -12896-5 0  9997","SEMIMAJOR_AXIS":"6925.364","MEAN_MOTION":"15.06394905","RCS_SIZE":"LARGE","MEAN_MOTION_DOT":"-0.00000301"},{"FILE":"3359665","BSTAR":"0.00037188000000","MEAN_ANOMALY":"311.2080","CENTER_NAME":"EARTH","EPHEMERIS_TYPE":"0","COUNTRY_CODE":"US","ECCENTRICITY":"0.00017630","REF_FRAME":"TEME","NORAD_CAT_ID":"47828","APOAPSIS":"548.425","OBJECT_TYPE":"PAYLOAD","TLE_LINE2":"2 47828  53.0534 317.3483 0001763  48.9061 311.2080 15.06403204 57029","GP_ID":"198767815","OBJECT_NAME":"STARLINK-2415","ELEMENT_SET_NO":"999","PERIAPSIS":"545.983","MEAN_ELEMENT_THEORY":"SGP4","SEMIMAJOR_AXIS":"6925.339","ARG_OF_PERICENTER":"48.9061","DECAY_DATE":null,"TLE_LINE1":"1 47828U 21018AT  22073.80544532  .00005262  00000-0  37188-3 0  9991","INCLINATION":"53.0534","LAUNCH_DATE":"2021-03-11","CLASSIFICATION_TYPE":"U","MEAN_MOTION_DOT":"0.00005262","RCS_SIZE":"LARGE","MEAN_MOTION":"15.06403204","PERIOD":"95.592","SITE":"AFETR","MEAN_MOTION_DDOT":"0.0000000000000","OBJECT_ID":"2021-018AT","TIME_SYSTEM":"UTC","RA_OF_ASC_NODE":"317.3483","REV_AT_EPOCH":"5702","EPOCH":"2022-03-14T19:19:50.475648"},{"EPOCH":"2022-03-14T19:46:23.846304","REV_AT_EPOCH":"5701","PERIOD":"95.593","MEAN_MOTION_DDOT":"0.0000000000000","SITE":"AFETR","OBJECT_ID":"2021-018AU","RA_OF_ASC_NODE":"317.2668","TIME_SYSTEM":"UTC","RCS_SIZE":"MEDIUM","MEAN_MOTION_DOT":"0.00000746","MEAN_MOTION":"15.06393136","SEMIMAJOR_AXIS":"6925.370","DECAY_DATE":null,"TLE_LINE1":"1 47829U 21018AU  22073.82388711  .00000746  00000-0  68967-4 0  9991","ARG_OF_PERICENTER":"60.9709","CLASSIFICATION_TYPE":"U","LAUNCH_DATE":"2021-03-11","INCLINATION":"53.0538","ELEMENT_SET_NO":"999","MEAN_ELEMENT_THEORY":"SGP4","PERIAPSIS":"546.016","OBJECT_TYPE":"PAYLOAD","TLE_LINE2":"2 47829  53.0538 317.2668 0001760  60.9709 299.1456 15.06393136 57010","GP_ID":"198768567","OBJECT_NAME":"STARLINK-2416","COUNTRY_CODE":"US","ECCENTRICITY":"0.00017600","REF_FRAME":"TEME","APOAPSIS":"548.453","NORAD_CAT_ID":"47829","BSTAR":"0.00006896700000","FILE":"3359665","CENTER_NAME":"EARTH","MEAN_ANOMALY":"299.1456","EPHEMERIS_TYPE":"0"},{"TLE_LINE2":"2 47830  53.0548 317.2790 0001184  52.5281 307.5816 15.06413273 57010","OBJECT_TYPE":"PAYLOAD","OBJECT_NAME":"STARLINK-2419","GP_ID":"198768818","MEAN_ELEMENT_THEORY":"SGP4","PERIAPSIS":"546.353","ELEMENT_SET_NO":"999","CENTER_NAME":"EARTH","MEAN_ANOMALY":"307.5816","FILE":"3359665","BSTAR":"0.00093477000000","EPHEMERIS_TYPE":"0","REF_FRAME":"TEME","COUNTRY_CODE":"US","ECCENTRICITY":"0.00011840","NORAD_CAT_ID":"47830","APOAPSIS":"547.993","PERIOD":"95.591","TIME_SYSTEM":"UTC","RA_OF_ASC_NODE":"317.2790","SITE":"AFETR","MEAN_MOTION_DDOT":"0.0000000000000","OBJECT_ID":"2021-018AV","REV_AT_EPOCH":"5701","EPOCH":"2022-03-14T19:41:03.715296","ARG_OF_PERICENTER":"52.5281","DECAY_DATE":null,"TLE_LINE1":"1 47830U 21018AV  22073.82018189  .00013674  00000-0  93477-3 0  9999","SEMIMAJOR_AXIS":"6925.308","INCLINATION":"53.0548","LAUNCH_DATE":"2021-03-11","CLASSIFICATION_TYPE":"U","RCS_SIZE":"LARGE","MEAN_MOTION_DOT":"0.00013674","MEAN_MOTION":"15.06413273"},{"EPOCH":"2022-03-14T21:17:17.333088","REV_AT_EPOCH":"5743","RA_OF_ASC_NODE":"291.9500","TIME_SYSTEM":"UTC","SITE":"AFETR","MEAN_MOTION_DDOT":"0.0000000000000","OBJECT_ID":"2021-018AW","PERIOD":"95.592","MEAN_MOTION":"15.06402802","RCS_SIZE":"LARGE","MEAN_MOTION_DOT":"0.00004736","LAUNCH_DATE":"2021-03-11","CLASSIFICATION_TYPE":"U","INCLINATION":"53.0608","TLE_LINE1":"1 47831U 21018AW  22073.88700617  .00004736  00000-0  33661-3 0  9998","DECAY_DATE":null,"ARG_OF_PERICENTER":"57.9283","SEMIMAJOR_AXIS":"6925.340","MEAN_ELEMENT_THEORY":"SGP4","PERIAPSIS":"546.129","ELEMENT_SET_NO":"999","OBJECT_NAME":"STARLINK-2420","GP_ID":"198768066","TLE_LINE2":"2 47831  53.0608 291.9500 0001554  57.9283 302.1857 15.06402802 57435","OBJECT_TYPE":"PAYLOAD","APOAPSIS":"548.281","NORAD_CAT_ID":"47831","REF_FRAME":"TEME","COUNTRY_CODE":"US","ECCENTRICITY":"0.00015540","EPHEMERIS_TYPE":"0","CENTER_NAME":"EARTH","MEAN_ANOMALY":"302.1857","BSTAR":"0.00033661000000","FILE":"3359665"},{"GP_ID":"198768315","OBJECT_NAME":"STARLINK-2422","OBJECT_TYPE":"PAYLOAD","TLE_LINE2":"2 47832  53.0539 307.1802 0001524  62.6039 297.5105 15.06383803 57165","ELEMENT_SET_NO":"999","MEAN_ELEMENT_THEORY":"SGP4","PERIAPSIS":"546.208","EPHEMERIS_TYPE":"0","BSTAR":"0.00012684000000","FILE":"3359665","MEAN_ANOMALY":"297.5105","CENTER_NAME":"EARTH","APOAPSIS":"548.319","NORAD_CAT_ID":"47832","COUNTRY_CODE":"US","ECCENTRICITY":"0.00015240","REF_FRAME":"TEME","OBJECT_ID":"2021-018AX","SITE":"AFETR","MEAN_MOTION_DDOT":"0.0000000000000","RA_OF_ASC_NODE":"307.1802","TIME_SYSTEM":"UTC","PERIOD":"95.593","EPOCH":"2022-03-14T20:14:16.279008","REV_AT_EPOCH":"5716","LAUNCH_DATE":"2021-03-11","CLASSIFICATION_TYPE":"U","INCLINATION":"53.0539","SEMIMAJOR_AXIS":"6925.398","TLE_LINE1":"1 47832U 21018AX  22073.84324397  .00001607  00000-0  12684-3 0  9998","DECAY_DATE":null,"ARG_OF_PERICENTER":"62.6039","MEAN_MOTION":"15.06383803","MEAN_MOTION_DOT":"0.00001607","RCS_SIZE":"LARGE"},{"PERIOD":"95.593","TIME_SYSTEM":"UTC","RA_OF_ASC_NODE":"307.3639","OBJECT_ID":"2021-018AY","SITE":"AFETR","MEAN_MOTION_DDOT":"0.0000000000000","REV_AT_EPOCH":"5721","EPOCH":"2022-03-14T19:15:53.229888","ARG_OF_PERICENTER":"58.6844","DECAY_DATE":null,"TLE_LINE1":"1 47833U 21018AY  22073.80269942 -.00001113  00000-0 -55879-4 0  9997","SEMIMAJOR_AXIS":"6925.387","INCLINATION":"53.0552","CLASSIFICATION_TYPE":"U","LAUNCH_DATE":"2021-03-11","MEAN_MOTION_DOT":"-0.00001113","RCS_SIZE":"LARGE","MEAN_MOTION":"15.06387470","TLE_LINE2":"2 47833  53.0552 307.3639 0001600  58.6844 301.4301 15.06387470 57218","OBJECT_TYPE":"PAYLOAD","OBJECT_NAME":"STARLINK-2423","GP_ID":"198769067","PERIAPSIS":"546.144","MEAN_ELEMENT_THEORY":"SGP4","ELEMENT_SET_NO":"999","CENTER_NAME":"EARTH","MEAN_ANOMALY":"301.4301","FILE":"3359665","BSTAR":"-0.00005587900000","EPHEMERIS_TYPE":"0","REF_FRAME":"TEME","COUNTRY_CODE":"US","ECCENTRICITY":"0.00016000","NORAD_CAT_ID":"47833","APOAPSIS":"548.360"},{"INCLINATION":"53.0536","CLASSIFICATION_TYPE":"U","LAUNCH_DATE":"2021-03-11","ARG_OF_PERICENTER":"59.1321","TLE_LINE1":"1 47834U 21018AZ  22073.88009970  .00008025  00000-0  55704-3 0  9992","DECAY_DATE":null,"SEMIMAJOR_AXIS":"6925.348","MEAN_MOTION":"15.06400324","MEAN_MOTION_DOT":"0.00008025","RCS_SIZE":"LARGE","TIME_SYSTEM":"UTC","RA_OF_ASC_NODE":"307.0109","MEAN_MOTION_DDOT":"0.0000000000000","SITE":"AFETR","OBJECT_ID":"2021-018AZ","PERIOD":"95.592","REV_AT_EPOCH":"5722","EPOCH":"2022-03-14T21:07:20.614080","EPHEMERIS_TYPE":"0","CENTER_NAME":"EARTH","MEAN_ANOMALY":"300.9809","FILE":"3359665","BSTAR":"0.00055704000000","NORAD_CAT_ID":"47834","APOAPSIS":"548.208","REF_FRAME":"TEME","COUNTRY_CODE":"US","ECCENTRICITY":"0.00014370","OBJECT_NAME":"STARLINK-2424","GP_ID":"198769318","TLE_LINE2":"2 47834  53.0536 307.0109 0001437  59.1321 300.9809 15.06400324 57226","OBJECT_TYPE":"PAYLOAD","MEAN_ELEMENT_THEORY":"SGP4","PERIAPSIS":"546.217","ELEMENT_SET_NO":"999"},{"REV_AT_EPOCH":"5708","EPOCH":"2022-03-14T19:53:39.429312","PERIOD":"95.592","SITE":"AFETR","MEAN_MOTION_DDOT":"0.0000000000000","OBJECT_ID":"2021-018BA","TIME_SYSTEM":"UTC","RA_OF_ASC_NODE":"312.2322","RCS_SIZE":"LARGE","MEAN_MOTION_DOT":"0.00006658","MEAN_MOTION":"15.06395323","SEMIMAJOR_AXIS":"6925.363","ARG_OF_PERICENTER":"52.9632","DECAY_DATE":null,"TLE_LINE1":"1 47835U 21018BA  22073.82892858  .00006658  00000-0  46552-3 0  9993","INCLINATION":"53.0528","LAUNCH_DATE":"2021-03-11","CLASSIFICATION_TYPE":"U","ELEMENT_SET_NO":"999","MEAN_ELEMENT_THEORY":"SGP4","PERIAPSIS":"546.105","OBJECT_TYPE":"PAYLOAD","TLE_LINE2":"2 47835  53.0528 312.2322 0001621  52.9632 307.1505 15.06395323 57082","GP_ID":"198767567","OBJECT_NAME":"STARLINK-2425","COUNTRY_CODE":"US","ECCENTRICITY":"0.00016210","REF_FRAME":"TEME","NORAD_CAT_ID":"47835","APOAPSIS":"548.350","FILE":"3359665","BSTAR":"0.00046552000000","CENTER_NAME":"EARTH","MEAN_ANOMALY":"307.1505","EPHEMERIS_TYPE":"0"},{"LAUNCH_DATE":"2021-03-11","CLASSIFICATION_TYPE":"U","INCLINATION":"53.0552","TLE_LINE1":"1 47836U 21018BB  22073.82386842 -.00001728  00000-0 -97154-4 0  9995","DECAY_DATE":null,"ARG_OF_PERICENTER":"63.6155","SEMIMAJOR_AXIS":"6925.370","MEAN_MOTION":"15.06393069","MEAN_MOTION_DOT":"-0.00001728","RCS_SIZE":"LARGE","RA_OF_ASC_NODE":"307.2623","TIME_SYSTEM":"UTC","OBJECT_ID":"2021-018BB","SITE":"AFETR","MEAN_MOTION_DDOT":"0.0000000000000","PERIOD":"95.593","EPOCH":"2022-03-14T19:46:22.231488","REV_AT_EPOCH":"5716","EPHEMERIS_TYPE":"0","MEAN_ANOMALY":"296.5001","CENTER_NAME":"EARTH","BSTAR":"-0.00009715400000","FILE":"3359665","APOAPSIS":"548.362","NORAD_CAT_ID":"47836","REF_FRAME":"TEME","COUNTRY_CODE":"US","ECCENTRICITY":"0.00016270","OBJECT_NAME":"STARLINK-2426","GP_ID":"198767816","TLE_LINE2":"2 47836  53.0552 307.2623 0001627  63.6155 296.5001 15.06393069 57169","OBJECT_TYPE":"PAYLOAD","MEAN_ELEMENT_THEORY":"SGP4","PERIAPSIS":"546.108","ELEMENT_SET_NO":"999"}];
